NORAD_CAT_ID,OBJECT_NAME,OBJECT_TYPE,EPOCH,MEAN_MOTION,ECCENTRICITY,INCLINATION,RA_OF_ASC_NODE,ARG_OF_PERICENTER,MEAN_ANOMALY,BSTAR,MEAN_MOTION_DOT,MEAN_MOTION_DDOT,TLE_LINE0,TLE_LINE1,TLE_LINE2,SEMIMAJOR_AXIS,PERIOD,APOGEE,PERIGEE,DECAYED
53851.0,STARLINK-4755,PAYLOAD,2023-03-14 18:34:56,15.08865585,0.0001217,53.2162,151.2043,75.9672,284.1455,0.0026895,0.00042806,0.0,0 STARLINK-4755,1 53851U 22114AK  23073.77426211  .00042806  00000-0  26895-2 0  9999,2 53851  53.2162 151.2043 0001217  75.9672 284.1455 15.08865585 27746,6917.802,95.436,540.509,538.825,0.0
53851.0,STARLINK-4755,PAYLOAD,2023-03-14 21:45:42,15.0885787,0.0001149,53.2163,150.6099,79.4652,280.6469,0.0017,0.00026884,0.0,0 STARLINK-4755,1 53851U 22114AK  23073.90674226  .00026884  00000-0  17000-2 0  9991,2 53851  53.2163 150.6099 0001149  79.4652 280.6469 15.08857870 27768,6917.826,95.436,540.486,538.896,0.0
53851.0,STARLINK-4755,PAYLOAD,2023-03-15 10:28:46,15.08883983,0.000145,53.2162,148.2306,40.6346,319.4755,0.0019946,0.00031637,0.0,0 STARLINK-4755,1 53851U 22114AK  23074.43665211  .00031637  00000-0  19946-2 0  9997,2 53851  53.2162 148.2306 0001450  40.6346 319.4755 15.08883983 28388,6917.746,95.435,540.614,538.608,0.0
53851.0,STARLINK-4755,PAYLOAD,2023-03-15 13:39:32,15.08912868,0.0001039,53.2161,147.6363,78.3292,281.7816,0.0033634,0.00053756,0.0,0 STARLINK-4755,1 53851U 22114AK  23074.56912404  .00053756  00000-0  33634-2 0  9996,2 53851  53.2161 147.6363 0001039  78.3292 281.7816 15.08912868 27860,6917.658,95.433,540.241,538.804,0.0
53851.0,STARLINK-4755,PAYLOAD,2023-03-15 21:36:27,15.08872625,0.0001251,53.216,146.1491,99.102,261.0114,0.00029991,4.493e-05,0.0,0 STARLINK-4755,1 53851U 22114AK  23074.90032239  .00004493  00000-0  29991-3 0  9999,2 53851  53.2160 146.1491 0001251  99.1020 261.0114 15.08872625 28455,6917.781,95.435,540.511,538.78,0.0
53851.0,STARLINK-4755,PAYLOAD,2023-03-16 10:19:33,15.08828906,0.0001677,53.2164,143.7705,98.2699,261.8484,0.0011621,0.0001825,0.0,0 STARLINK-4755,1 53851U 22114AK  23075.43025423  .00018250  00000-0  11621-2 0  9991,2 53851  53.2164 143.7705 0001677  98.2699 261.8484 15.08828906 27993,6917.914,95.438,540.939,538.619,0.0
53851.0,STARLINK-4755,PAYLOAD,2023-03-16 13:30:20,15.08828556,0.0001856,53.2165,143.1759,94.3568,265.7636,0.0013592,0.00021403,0.0,0 STARLINK-4755,1 53851U 22114AK  23075.56273583  .00021403  00000-0  13592-2 0  9990,2 53851  53.2165 143.1759 0001856  94.3568 265.7636 15.08828556 28554,6917.915,95.438,541.064,538.496,0.0
53851.0,STARLINK-4755,PAYLOAD,2023-03-16 21:27:15,15.08827095,3.65e-05,53.2165,141.6886,188.2166,171.882,0.00016178,2.287e-05,0.0,0 STARLINK-4755,1 53851U 22114AK  23075.89393254  .00002287  00000-0  16178-3 0  9997,2 53851  53.2165 141.6886 0000365 188.2166 171.8820 15.08827095 28064,6917.92,95.438,540.037,539.532,0.0
53851.0,STARLINK-4755,PAYLOAD,2023-03-17 03:48:49,15.08810896,0.0002064,53.2169,140.5003,88.6613,271.4616,0.00032483,4.881e-05,0.0,0 STARLINK-4755,1 53851U 22114AK  23076.15890951  .00004881  00000-0  32483-3 0  9992,2 53851  53.2169 140.5003 0002064  88.6613 271.4616 15.08810896 28101,6917.969,95.439,541.262,538.406,0.0
53851.0,STARLINK-4755,PAYLOAD,2023-03-17 10:10:22,15.08807,0.000181,53.2162,139.3114,86.6082,273.5117,0.00065623,0.00010162,0.0,0 STARLINK-4755,1 53851U 22114AK  23076.42387566  .00010162  00000-0  65623-3 0  9996,2 53851  53.2162 139.3114 0001810  86.6082 273.5117 15.08807000 28684,6917.981,95.44,541.098,538.594,0.0
53851.0,STARLINK-4755,PAYLOAD,2023-03-17 21:18:05,15.08830738,0.0002031,53.2174,137.2301,84.7727,275.3497,0.0012587,0.00019796,0.0,0 STARLINK-4755,1 53851U 22114AK  23076.88756066  .00019796  00000-0  12587-2 0  9993,2 53851  53.2174 137.2301 0002031  84.7727 275.3497 15.08830738 28756,6917.909,95.438,541.179,538.369,0.0
53851.0,STARLINK-4755,PAYLOAD,2023-03-18 03:39:37,15.08851377,0.0001656,53.2156,136.0394,87.9934,272.1248,0.0016275,0.00025717,0.0,0 STARLINK-4755,1 53851U 22114AK  23077.15251785  .00025717  00000-0  16275-2 0  9990,2 53851  53.2156 136.0394 0001656  87.9934 272.1248 15.08851377 28258,6917.846,95.437,540.856,538.565,0.0
53851.0,STARLINK-4755,PAYLOAD,2023-03-18 21:08:51,15.08863737,0.0001817,53.2173,132.7689,83.4346,276.6853,0.00083584,0.00013048,0.0,0 STARLINK-4755,1 53851U 22114AK  23077.88114976  .00013048  00000-0  83584-3 0  9992,2 53851  53.2173 132.7689 0001817  83.4346 276.6853 15.08863737 28900,6917.808,95.436,540.93,538.416,0.0
53851.0,STARLINK-4755,PAYLOAD,2023-03-19 13:02:42,15.08865828,0.0001428,53.2162,129.7944,91.4495,268.6661,0.00092595,0.0001449,0.0,0 STARLINK-4755,1 53851U 22114AK  23078.54354405  .00014490  00000-0  92595-3 0  9993,2 53851  53.2162 129.7944 0001428  91.4495 268.6661 15.08865828 28462,6917.801,95.436,540.654,538.679,0.0
53851.0,STARLINK-4755,PAYLOAD,2023-03-19 20:59:38,15.08859107,0.0001341,53.2162,128.308,95.0632,265.0513,0.0010673,0.00016748,0.0,0 STARLINK-4755,1 53851U 22114AK  23078.87474585  .00016748  00000-0  10673-2 0  9995,2 53851  53.2162 128.3080 0001341  95.0632 265.0513 15.08859107 28511,6917.822,95.436,540.615,538.759,0.0
53851.0,STARLINK-4755,PAYLOAD,2023-03-20 06:31:56,15.08853422,0.0001589,53.2168,126.5245,104.5224,255.5945,0.0010383,0.00016281,0.0,0 STARLINK-4755,1 53851U 22114AK  23079.27218566  .00016281  00000-0  10383-2 0  9995,2 53851  53.2168 126.5245 0001589 104.5224 255.5945 15.08853422 28570,6917.839,95.437,540.804,538.605,0.0
53851.0,STARLINK-4755,PAYLOAD,2023-03-20 09:42:42,15.08856639,0.0001517,53.2168,125.9297,98.8234,261.293,0.00054215,8.355e-05,0.0,0 STARLINK-4755,1 53851U 22114AK  23079.40466389  .00008355  00000-0  54215-3 0  9994,2 53851  53.2168 125.9297 0001517  98.8234 261.2930 15.08856639 29131,6917.83,95.437,540.744,538.645,0.0
53851.0,STARLINK-4755,PAYLOAD,2023-03-20 12:53:29,15.08852788,0.0001431,53.217,125.3351,95.6273,264.4882,0.00069367,0.00010773,0.0,0 STARLINK-4755,1 53851U 22114AK  23079.53714357  .00010773  00000-0  69367-3 0  9990,2 53851  53.2170 125.3351 0001431  95.6273 264.4882 15.08852788 28616,6917.841,95.437,540.696,538.716,0.0
53851.0,STARLINK-4755,PAYLOAD,2023-03-21 07:58:07,15.08844393,0.0001487,53.2171,121.7652,103.0709,257.0449,0.00039745,6.044e-05,0.0,0 STARLINK-4755,1 53851U 22114AK  23080.33202599  .00006044  00000-0  39745-3 0  9993,2 53851  53.2171 121.7652 0001487 103.0709 257.0449 15.08844393 28733,6917.867,95.437,540.761,538.703,0.0
53851.0,STARLINK-4755,PAYLOAD,2023-03-21 09:33:30,15.08840397,0.0001455,53.2162,121.467,93.3723,266.7436,0.00026559,3.941e-05,0.0,0 STARLINK-4755,1 53851U 22114AK  23080.39826669  .00003941  00000-0  26559-3 0  9991,2 53851  53.2162 121.4670 0001455  93.3723 266.7436 15.08840397 29286,6917.879,95.438,540.751,538.738,0.0
53851.0,STARLINK-4755,PAYLOAD,2023-03-21 19:05:49,15.0883767,0.0001504,53.2162,119.684,89.1652,270.9513,8.0088e-05,9.87e-06,0.0,0 STARLINK-4755,1 53851U 22114AK  23080.79570951  .00000987  00000-0  80088-4 0  9990,2 53851  53.2162 119.6840 0001504  89.1652 270.9513 15.08837670 28803,6917.888,95.438,540.793,538.712,0.0
53851.0,STARLINK-4755,PAYLOAD,2023-03-22 18:56:36,15.08841819,0.0001244,53.2163,115.2222,96.2,263.9134,0.00016125,2.279e-05,0.0,0 STARLINK-4755,1 53851U 22114AK  23081.78930832  .00002279  00000-0  16125-3 0  9994,2 53851  53.2163 115.2222 0001244  96.2000 263.9134 15.08841819 29494,6917.875,95.437,540.6,538.879,0.0
53851.0,STARLINK-4755,PAYLOAD,2023-03-23 07:39:41,15.08848992,0.0001329,53.2166,112.8435,95.7252,264.3892,0.00028195,4.203e-05,0.0,0 STARLINK-4755,1 53851U 22114AK  23082.31922647  .00004203  00000-0  28195-3 0  9998,2 53851  53.2166 112.8435 0001329  95.7252 264.3892 15.08848992 29038,6917.853,95.437,540.637,538.799,0.0
53851.0,STARLINK-4755,PAYLOAD,2023-03-23 18:47:22,15.08855951,0.0001257,53.2167,110.7624,88.3657,271.7479,0.00039278,5.971e-05,0.0,0 STARLINK-4755,1 53851U 22114AK  23082.78290295  .00005971  00000-0  39278-3 0  9993,2 53851  53.2167 110.7624 0001257  88.3657 271.7479 15.08855951 29646,6917.832,95.437,540.566,538.827,0.0
53851.0,STARLINK-4755,PAYLOAD,2023-03-24 09:05:50,15.08864675,0.0001613,53.2172,108.0888,91.4775,268.6402,0.00049751,7.644e-05,0.0,0 STARLINK-4755,1 53851U 22114AK  23083.37905892  .00007644  00000-0  49751-3 0  9991,2 53851  53.2172 108.0888 0001613  91.4775 268.6402 15.08864675 29190,6917.805,95.436,540.786,538.554,0.0
53851.0,STARLINK-4755,PAYLOAD,2023-03-24 18:38:10,15.0881247,0.0001055,53.2165,106.3028,98.6423,261.4688,-0.00064218,-0.00010486,0.0,0 STARLINK-4755,1 53851U 22114AK  23083.77651080 -.00010486  00000-0 -64218-3 0  9997,2 53851  53.2165 106.3028 0001055  98.6423 261.4688 15.08812470 29258,6917.965,95.439,540.559,539.1,0.0
53851.0,STARLINK-4755,PAYLOAD,2023-03-25 18:28:58,15.08820305,0.000129,53.2176,101.8424,98.2407,261.8731,-9.6731e-05,-1.826e-05,0.0,0 STARLINK-4755,1 53851U 22114AK  23084.77012557 -.00001826  00000-0 -96731-4 0  9992,2 53851  53.2176 101.8424 0001290  98.2407 261.8731 15.08820305 29405,6917.941,95.439,540.698,538.913,0.0
53851.0,STARLINK-4755,PAYLOAD,2023-03-26 07:12:04,15.08831238,0.0001096,53.2167,99.463,103.4485,256.6629,0.00046336,7.092e-05,0.0,0 STARLINK-4755,1 53851U 22114AK  23085.30005020  .00007092  00000-0  46336-3 0  9993,2 53851  53.2167  99.4630 0001096 103.4485 256.6629 15.08831238 29488,6917.907,95.438,540.53,539.014,0.0
53851.0,STARLINK-4755,PAYLOAD,2023-03-26 18:19:46,15.08847886,0.0001149,53.2169,97.3814,105.1397,254.9722,0.00096809,0.00015156,0.0,0 STARLINK-4755,1 53851U 22114AK  23085.76373180  .00015156  00000-0  96809-3 0  9998,2 53851  53.2169  97.3814 0001149 105.1397 254.9722 15.08847886 30091,6917.856,95.437,540.516,538.926,0.0
53851.0,STARLINK-4755,PAYLOAD,2023-03-27 03:52:04,15.08870739,0.0001089,53.2166,95.5968,107.8015,252.3096,0.0012097,0.00019033,0.0,0 STARLINK-4755,1 53851U 22114AK  23086.16116429  .00019033  00000-0  12097-2 0  9998,2 53851  53.2166  95.5968 0001089 107.8015 252.3096 15.08870739 29612,6917.786,95.436,540.405,538.898,0.0
